NORAD_CAT_ID,OBJECT_NAME,OBJECT_TYPE,EPOCH,MEAN_MOTION,ECCENTRICITY,INCLINATION,RA_OF_ASC_NODE,ARG_OF_PERICENTER,MEAN_ANOMALY,BSTAR,MEAN_MOTION_DOT,MEAN_MOTION_DDOT,TLE_LINE0,TLE_LINE1,TLE_LINE2,SEMIMAJOR_AXIS,PERIOD,APOGEE,PERIGEE,DECAYED
53802.0,STARLINK-4726,PAYLOAD,2024-06-16 10:58:37,15.08838454,0.0001586,53.2165,217.7,77.6103,282.5066,9.3768e-05,1.205e-05,0.0,0 STARLINK-4726,1 53802U 22111AF  24168.45737371  .00001205  00000-0  93768-4 0  9998,2 53802  53.2165 217.7000 0001586  77.6103 282.5066 15.08838454 98522,6917.885,95.438,540.847,538.653,0.0
53802.0,STARLINK-4726,PAYLOAD,2024-06-17 20:21:42,15.08842318,0.0001331,53.2156,211.4569,84.6674,275.447,3.1666e-05,2.16e-06,0.0,0 STARLINK-4726,1 53802U 22111AF  24169.84841179  .00000216  00000-0  31666-4 0  9994,2 53802  53.2156 211.4569 0001331  84.6674 275.4470 15.08842318 97929,6917.873,95.437,540.659,538.818,0.0
53802.0,STARLINK-4726,PAYLOAD,2024-06-18 09:04:48,15.08832953,0.0001307,53.2162,209.0782,91.1509,268.9633,0.00022875,3.354e-05,0.0,0 STARLINK-4726,1 53802U 22111AF  24170.37833626  .00003354  00000-0  22875-3 0  9999,2 53802  53.2162 209.0782 0001307  91.1509 268.9633 15.08832953 98001,6917.902,95.438,540.671,538.863,0.0
53802.0,STARLINK-4726,PAYLOAD,2024-06-19 12:06:21,15.08840098,0.0001371,53.217,204.0218,96.0561,264.0588,9.6651e-05,1.251e-05,0.0,0 STARLINK-4726,1 53802U 22111AF  24171.50441220  .00001251  00000-0  96651-4 0  9998,2 53802  53.2170 204.0218 0001371  96.0561 264.0588 15.08840098 98175,6917.88,95.438,540.694,538.797,0.0
53802.0,STARLINK-4726,PAYLOAD,2024-06-20 08:46:21,15.08840123,0.0001244,53.2166,200.157,91.492,268.6214,7.2486e-05,8.66e-06,0.0,0 STARLINK-4726,1 53802U 22111AF  24172.36553232  .00000866  00000-0  72486-4 0  9991,2 53802  53.2166 200.1570 0001244  91.4920 268.6214 15.08840123 99115,6917.88,95.438,540.606,538.884,0.0
53802.0,STARLINK-4726,PAYLOAD,2024-06-20 18:18:40,15.08843077,0.0001236,53.2166,198.3728,90.7073,269.4061,6.6944e-05,7.78e-06,0.0,0 STARLINK-4726,1 53802U 22111AF  24172.76297010  .00000778  00000-0  66944-4 0  9998,2 53802  53.2166 198.3728 0001236  90.7073 269.4061 15.08843077 98366,6917.871,95.437,540.591,538.881,0.0
53802.0,STARLINK-4726,PAYLOAD,2024-06-21 05:26:23,15.08833742,0.0001329,53.2169,196.2923,93.737,266.3774,2.494e-07,-2.84e-06,0.0,0 STARLINK-4726,1 53802U 22111AF  24173.22665821 -.00000284  00000-0  24940-6 0  9994,2 53802  53.2169 196.2923 0001329  93.7370 266.3774 15.08833742 98432,6917.9,95.438,540.684,538.845,0.0
53802.0,STARLINK-4726,PAYLOAD,2024-06-21 08:37:09,15.08833668,0.0001328,53.217,195.6976,93.3022,266.8122,-6.5048e-06,-3.91e-06,0.0,0 STARLINK-4726,1 53802U 22111AF  24173.35913850 -.00000391  00000-0 -65048-5 0  9999,2 53802  53.2170 195.6976 0001328  93.3022 266.8122 15.08833668 99265,6917.9,95.438,540.683,538.846,0.0
53802.0,STARLINK-4726,PAYLOAD,2024-06-22 10:03:19,15.08835347,0.000133,53.2172,190.9424,97.9631,262.1512,2.6022e-05,1.26e-06,0.0,0 STARLINK-4726,1 53802U 22111AF  24174.41897997  .00000126  00000-0  26022-4 0  9992,2 53802  53.2172 190.9424 0001330  97.9631 262.1512 15.08835347 98618,6917.895,95.438,540.68,538.84,0.0
53802.0,STARLINK-4726,PAYLOAD,2024-06-23 09:54:06,15.08836742,0.0001238,53.2163,186.4778,94.5165,265.5968,9.8039e-05,1.273e-05,0.0,0 STARLINK-4726,1 53802U 22111AF  24175.41257980  .00001273  00000-0  98039-4 0  9996,2 53802  53.2163 186.4778 0001238  94.5165 265.5968 15.08836742 99570,6917.89,95.438,540.612,538.899,0.0
53802.0,STARLINK-4726,PAYLOAD,2024-06-24 04:58:44,15.08842315,0.0001222,53.2162,182.9092,91.0817,269.0315,0.00010712,1.417e-05,0.0,0 STARLINK-4726,1 53802U 22111AF  24176.20745676  .00001417  00000-0  10712-3 0  9999,2 53802  53.2162 182.9092 0001222  91.0817 269.0315 15.08842315 98889,6917.873,95.437,540.584,538.893,0.0
53802.0,STARLINK-4726,PAYLOAD,2024-06-24 08:09:30,15.08843435,0.000124,53.2163,182.3145,90.6276,269.4858,0.00011582,1.556e-05,0.0,0 STARLINK-4726,1 53802U 22111AF  24176.33993595  .00001556  00000-0  11582-3 0  9998,2 53802  53.2163 182.3145 0001240  90.6276 269.4858 15.08843435 99710,6917.87,95.437,540.593,538.877,0.0
53802.0,STARLINK-4726,PAYLOAD,2024-06-25 06:24:54,15.08843665,0.0001303,53.2164,178.1518,85.1929,274.9212,6.4853e-05,7.44e-06,0.0,0 STARLINK-4726,1 53802U 22111AF  24177.26729644  .00000744  00000-0  64853-4 0  9991,2 53802  53.2164 178.1518 0001303  85.1929 274.9212 15.08843665 99048,6917.869,95.437,540.636,538.833,0.0
53802.0,STARLINK-4726,PAYLOAD,2024-06-26 06:15:41,15.08844072,0.0001287,53.2161,173.6913,88.8593,271.2547,3.8715e-05,3.28e-06,0.0,0 STARLINK-4726,1 53802U 22111AF  24178.26089466  .00000328  00000-0  38715-4 0  9999,2 53802  53.2161 173.6913 0001287  88.8593 271.2547 15.08844072100005,6917.868,95.437,540.623,538.843,0.0
53802.0,STARLINK-4726,PAYLOAD,2024-06-27 04:31:05,15.08837137,0.0001321,53.2162,169.5267,99.4293,260.6848,2.4308e-05,9.9e-07,0.0,0 STARLINK-4726,1 53802U 22111AF  24179.18825902  .00000099  00000-0  24308-4 0  9992,2 53802  53.2162 169.5267 0001321  99.4293 260.6848 15.08837137 99339,6917.889,95.438,540.668,538.84,0.0
53802.0,STARLINK-4726,PAYLOAD,2024-06-27 06:06:28,15.08836262,0.0001287,53.2161,169.2298,96.0332,264.0807,1.5151e-05,-4.7e-07,0.0,0 STARLINK-4726,1 53802U 22111AF  24179.25449998 -.00000047  00000-0  15151-4 0  9997,2 53802  53.2161 169.2298 0001287  96.0332 264.0807 15.08836262100151,6917.892,95.438,540.647,538.866,0.0
53802.0,STARLINK-4726,PAYLOAD,2024-06-28 05:57:15,15.08840321,0.0001261,53.2158,164.7704,94.7049,265.4087,6.0653e-05,6.78e-06,0.0,0 STARLINK-4726,1 53802U 22111AF  24180.24809850  .00000678  00000-0  60653-4 0  9991,2 53802  53.2158 164.7704 0001261  94.7049 265.4087 15.08840321 99491,6917.879,95.438,540.617,538.872,0.0
53802.0,STARLINK-4726,PAYLOAD,2024-06-29 07:23:25,15.08845531,0.0001245,53.2157,160.0122,93.9143,266.1992,0.00016574,2.351e-05,0.0,0 STARLINK-4726,1 53802U 22111AF  24181.30793347  .00002351  00000-0  16574-3 0  9994,2 53802  53.2157 160.0122 0001245  93.9143 266.1992 15.08845531 99650,6917.863,95.437,540.59,538.867,0.0
53802.0,STARLINK-4726,PAYLOAD,2024-06-29 15:20:20,15.08851236,0.00012,53.2155,158.5245,90.4602,269.6528,0.00018811,2.708e-05,0.0,0 STARLINK-4726,1 53802U 22111AF  24181.63912851  .00002708  00000-0  18811-3 0  9995,2 53802  53.2155 158.5245 0001200  90.4602 269.6528 15.08851236100519,6917.846,95.437,540.541,538.881,0.0
53802.0,STARLINK-4726,PAYLOAD,2024-06-30 05:38:50,15.08829433,0.0001217,53.2145,155.8508,90.5914,269.5218,-0.00013909,-2.5e-05,0.0,0 STARLINK-4726,1 53802U 22111AF  24182.23530376 -.00002500  00000-0 -13909-3 0  9995,2 53802  53.2145 155.8508 0001217  90.5914 269.5218 15.08829433 99791,6917.913,95.438,540.62,538.936,0.0
53802.0,STARLINK-4726,PAYLOAD,2024-06-30 07:14:13,15.08832323,0.0001373,53.2156,155.5531,89.118,270.9969,-9.7329e-05,-1.836e-05,0.0,0 STARLINK-4726,1 53802U 22111AF  24182.30154305 -.00001836  00000-0 -97329-4 0  9997,2 53802  53.2156 155.5531 0001373  89.1180 270.9969 15.08832323100613,6917.904,95.438,540.719,538.819,0.0
53802.0,STARLINK-4726,PAYLOAD,2024-06-30 15:11:08,15.08837039,0.0001338,53.2155,154.066,86.0303,274.0842,-1.3571e-05,-5.04e-06,0.0,0 STARLINK-4726,1 53802U 22111AF  24182.63274172 -.00000504  00000-0 -13571-4 0  9996,2 53802  53.2155 154.0660 0001338  86.0303 274.0842 15.08837039 99850,6917.889,95.438,540.68,538.829,0.0
53802.0,STARLINK-4726,PAYLOAD,2024-07-01 07:05:00,15.08843709,0.0001411,53.2158,151.0929,86.4358,273.6796,0.00013926,1.929e-05,0.0,0 STARLINK-4726,1 53802U 22111AF  24183.29514150  .00001929  00000-0  13926-3 0  9995,2 53802  53.2158 151.0929 0001411  86.4358 273.6796 15.08843709100761,6917.869,95.437,540.71,538.758,0.0
53802.0,STARLINK-4726,PAYLOAD,2024-07-01 21:23:28,15.08841368,0.0001405,53.215,148.4179,85.8488,274.2665,0.0003492,5.274e-05,0.0,0 STARLINK-4726,1 53802U 22111AF  24183.89130497  .00005274  00000-0  34920-3 0  9993,2 53802  53.2150 148.4179 0001405  85.8488 274.2665 15.08841368100042,6917.876,95.437,540.713,538.769,0.0
53802.0,STARLINK-4726,PAYLOAD,2024-07-02 05:20:24,15.08839695,0.0001245,53.215,146.9269,88.8299,271.2836,0.00017159,2.444e-05,0.0,0 STARLINK-4726,1 53802U 22111AF  24184.22250534  .00002444  00000-0  17159-3 0  9997,2 53802  53.2150 146.9269 0001245  88.8299 271.2836 15.08839695100902,6917.881,95.438,540.608,538.885,0.0
53802.0,STARLINK-4726,PAYLOAD,2024-07-02 14:52:43,15.08847574,0.0001327,53.2145,145.1441,88.8685,271.2459,0.00028906,4.316e-05,0.0,0 STARLINK-4726,1 53802U 22111AF  24184.61994259  .00004316  00000-0  28906-3 0  9991,2 53802  53.2145 145.1441 0001327  88.8685 271.2459 15.08847574100961,6917.857,95.437,540.64,538.804,0.0
53802.0,STARLINK-4726,PAYLOAD,2024-07-03 03:35:48,15.08836622,0.0001329,53.2164,142.7634,94.1733,265.9411,7.1502e-05,8.5e-06,0.0,0 STARLINK-4726,1 53802U 22111AF  24185.14986789  .00000850  00000-0  71502-4 0  9999,2 53802  53.2164 142.7634 0001329  94.1733 265.9411 15.08836622100235,6917.891,95.438,540.675,538.836,0.0
53802.0,STARLINK-4726,PAYLOAD,2024-07-03 21:05:02,15.08840708,0.0001379,53.2157,139.4952,100.192,259.9228,0.00016602,2.355e-05,0.0,0 STARLINK-4726,1 53802U 22111AF  24185.87850481  .00002355  00000-0  16602-3 0  9999,2 53802  53.2157 139.4952 0001379 100.1920 259.9228 15.08840708101155,6917.878,95.438,540.697,538.789,0.0
53802.0,STARLINK-4726,PAYLOAD,2024-07-04 06:37:21,15.08842068,0.0001344,53.2163,137.7095,99.9434,260.171,8.054e-05,9.94e-06,0.0,0 STARLINK-4726,1 53802U 22111AF  24186.27594501  .00000994  00000-0  80540-4 0  9992,2 53802  53.2163 137.7095 0001344  99.9434 260.1710 15.08842068100406,6917.874,95.437,540.669,538.809,0.0
53802.0,STARLINK-4726,PAYLOAD,2024-07-05 03:17:22,15.08837789,0.0001224,53.2158,133.8451,90.2496,269.8636,9.9632e-05,1.298e-05,0.0,0 STARLINK-4726,1 53802U 22111AF  24187.13706874  .00001298  00000-0  99632-4 0  9996,2 53802  53.2158 133.8451 0001224  90.2496 269.8636 15.08837789100533,6917.887,95.438,540.599,538.905,0.0
